ONEWEB-0179             
1 48212U 21031C   23059.32880209 -.00000111  00000+0 -33368-3 0  9995
2 48212  87.9132 169.3535 0002019 113.1317 247.0026 13.14500849 90049
ONEWEB-0179             
1 48212U 21031C   23059.86162803 -.00000233  00000+0 -66332-3 0  9999
2 48212  87.9129 169.2477 0002005 112.7636 247.3706 13.14500711 90117
ONEWEB-0179             
1 48212U 21031C   23060.85116148 -.00000077  00000+0 -24324-3 0  9992
2 48212  87.9126 169.0522 0002017 111.7421 248.3923 13.14500238 90247
ONEWEB-0179             
1 48212U 21031C   23061.30786842  .00000057  00000+0  12021-3 0  9994
2 48212  87.9124 168.9618 0002046 111.4317 248.7031 13.14501186 90306
ONEWEB-0179             
1 48212U 21031C   23062.22128410  .00000102  00000+0  24012-3 0  9991
2 48212  87.9123 168.7813 0002042 110.5407 249.5942 13.14501534 90426
ONEWEB-0179             
1 48212U 21031C   23062.37351987  .00000217  00000+0  55174-3 0  9994
2 48212  87.9125 168.7512 0002047 111.1252 249.0097 13.14501356 90444
ONEWEB-0179             
1 48212U 21031C   23062.83022851  .00000150  00000+0  37015-3 0  9990
2 48212  87.9133 168.6619 0001862 107.5053 252.6281 13.14500901 90509
